{
  "type": "FeatureCollection",
  "features": [
    {
      "type": "Feature",
      "geometry": {
        "type": "Point",
        "coordinates": [
          73.72,
          20.8
        ]
      },
      "properties": {
        "id": "dang-anjan-kund",
        "name": "Anjan Kund (Anjani Parvat)",
        "category": "religious-site",
        "cluster": "dang-interior",
        "district": "dang",
        "status": "active",
        "tags": [
          "pilgrimage",
          "mythology",
          "trekking",
          "offbeat",
          "nature"
        ],
        "precision": "area",
        "summary": "A forest kund and cave on Anjani hill held locally as Hanuman's birthplace — a short trek into Dang's Ramayana geography.",
        "monsoon_dependent": false,
        "confidence": "low"
      }
    },
    {
      "type": "Feature",
      "geometry": {
        "type": "Point",
        "coordinates": [
          73.762,
          20.577
        ]
      },
      "properties": {
        "id": "dang-artist-village",
        "name": "Artist Village (Gandharvapur)",
        "category": "cultural",
        "cluster": "saputara",
        "district": "dang",
        "status": "active",
        "tags": [
          "tribal-culture",
          "shopping",
          "heritage",
          "family",
          "photography"
        ],
        "precision": "area",
        "summary": "A working craft centre outside Saputara where Warli painting and bamboo work are made, taught and sold by the artists themselves.",
        "monsoon_dependent": false,
        "confidence": "medium"
      }
    },
    {
      "type": "Feature",
      "geometry": {
        "type": "Point",
        "coordinates": [
          73.68,
          20.92
        ]
      },
      "properties": {
        "id": "dang-barda-falls",
        "name": "Barda Falls",
        "category": "waterfall",
        "cluster": "dang-interior",
        "district": "dang",
        "status": "active",
        "tags": [
          "monsoon",
          "offbeat",
          "nature"
        ],
        "precision": "area",
        "summary": "A little-documented interior-Dang monsoon waterfall near Barda village — for completists willing to ask directions and accept a rough approach.",
        "monsoon_dependent": true,
        "confidence": "low"
      }
    },
    {
      "type": "Feature",
      "geometry": {
        "type": "Point",
        "coordinates": [
          73.8,
          20.87
        ]
      },
      "properties": {
        "id": "dang-don-hill",
        "name": "Don Hill Station",
        "category": "viewpoint",
        "cluster": "dang-interior",
        "district": "dang",
        "status": "active",
        "tags": [
          "offbeat",
          "nature",
          "sunrise",
          "trekking",
          "photography",
          "tribal-culture"
        ],
        "precision": "area",
        "summary": "A quiet tribal village on one of Gujarat's highest plateaus — grass meadows, ridge walks and valley views without Saputara's crowds.",
        "monsoon_dependent": false,
        "confidence": "medium"
      }
    },
    {
      "type": "Feature",
      "geometry": {
        "type": "Point",
        "coordinates": [
          73.768,
          20.579
        ]
      },
      "properties": {
        "id": "dang-echo-point",
        "name": "Echo Point",
        "category": "viewpoint",
        "cluster": "saputara",
        "district": "dang",
        "status": "active",
        "tags": [
          "family",
          "kids",
          "nature",
          "photography"
        ],
        "precision": "area",
        "summary": "A curve on Saputara's rim road where the facing cliffs bounce a clean echo — a five-minute stop kids refuse to leave.",
        "monsoon_dependent": false,
        "confidence": "medium"
      }
    },
    {
      "type": "Feature",
      "geometry": {
        "type": "Point",
        "coordinates": [
          73.533,
          20.751
        ]
      },
      "properties": {
        "id": "dang-gira-falls",
        "name": "Gira Falls",
        "category": "waterfall",
        "cluster": "waghai",
        "district": "dang",
        "status": "active",
        "tags": [
          "monsoon",
          "popular",
          "photography",
          "nature",
          "family",
          "picnic"
        ],
        "precision": "approximate",
        "summary": "Dang's most visited waterfall — a broad ~23 m (75 ft) curtain near Waghai that turns thunderous after the June rains and runs through early winter.",
        "monsoon_dependent": true,
        "confidence": "medium"
      }
    },
    {
      "type": "Feature",
      "geometry": {
        "type": "Point",
        "coordinates": [
          73.83,
          20.95
        ]
      },
      "properties": {
        "id": "dang-girmal-falls",
        "name": "Girmal Falls",
        "category": "waterfall",
        "cluster": "dang-interior",
        "district": "dang",
        "status": "active",
        "tags": [
          "monsoon",
          "offbeat",
          "photography",
          "nature",
          "picnic"
        ],
        "precision": "approximate",
        "summary": "Gujarat's tallest waterfall — a roughly 30 m plunge on the Gira river deep in interior Dang, thundering from July to October.",
        "monsoon_dependent": true,
        "confidence": "medium"
      }
    },
    {
      "type": "Feature",
      "geometry": {
        "type": "Point",
        "coordinates": [
          73.749,
          20.577
        ]
      },
      "properties": {
        "id": "dang-governors-hill",
        "name": "Governor's Hill",
        "category": "viewpoint",
        "cluster": "saputara",
        "district": "dang",
        "status": "active",
        "tags": [
          "offbeat",
          "nature",
          "photography",
          "trekking"
        ],
        "precision": "area",
        "summary": "A wooded knoll above Saputara town with walking paths and quiet town-and-valley views — the low-key alternative to the headline points.",
        "monsoon_dependent": false,
        "confidence": "medium"
      }
    },
    {
      "type": "Feature",
      "geometry": {
        "type": "Point",
        "coordinates": [
          73.701,
          20.586
        ]
      },
      "properties": {
        "id": "dang-hatgadh-fort",
        "name": "Hatgadh Fort",
        "category": "fort",
        "cluster": "saputara",
        "district": "dang",
        "status": "active",
        "tags": [
          "trekking",
          "history",
          "offbeat",
          "photography",
          "nature"
        ],
        "precision": "approximate",
        "summary": "A hill fort just across the Maharashtra border from Saputara — an hour's rocky climb to ramparts, rock-cut cisterns and huge two-state views.",
        "monsoon_dependent": false,
        "confidence": "medium"
      }
    },
    {
      "type": "Feature",
      "geometry": {
        "type": "Point",
        "coordinates": [
          73.758,
          20.576
        ]
      },
      "properties": {
        "id": "dang-honey-bee-centre",
        "name": "Honey Bee Centre",
        "category": "cultural",
        "cluster": "saputara",
        "district": "dang",
        "status": "active",
        "tags": [
          "family",
          "kids",
          "offbeat",
          "food"
        ],
        "precision": "area",
        "summary": "Saputara's little apiculture stop — hive demonstrations, bee lore and forest honey to take home; check it's operating before you plan around it.",
        "monsoon_dependent": false,
        "confidence": "low"
      }
    },
    {
      "type": "Feature",
      "geometry": {
        "type": "Point",
        "coordinates": [
          73.512,
          20.776
        ]
      },
      "properties": {
        "id": "dang-kilad-nature-campsite",
        "name": "Kilad Nature Education Campsite",
        "category": "eco-campsite",
        "cluster": "waghai",
        "district": "dang",
        "status": "active",
        "tags": [
          "nature",
          "family",
          "birding",
          "offbeat"
        ],
        "precision": "area",
        "summary": "Forest-department campsite on the Ambika river near Waghai — riverside cottages, nature trails and an easy first taste of Dang's forests.",
        "monsoon_dependent": false,
        "confidence": "medium"
      }
    },
    {
      "type": "Feature",
      "geometry": {
        "type": "Point",
        "coordinates": [
          73.7565,
          20.572
        ]
      },
      "properties": {
        "id": "dang-lake-garden",
        "name": "Lake Garden",
        "category": "garden",
        "cluster": "saputara",
        "district": "dang",
        "status": "active",
        "tags": [
          "family",
          "picnic",
          "evening",
          "nature",
          "kids"
        ],
        "precision": "area",
        "summary": "Lawns, play corners and shaded benches right on Saputara Lake's shore — the default family unwind after boating.",
        "monsoon_dependent": false,
        "confidence": "medium"
      }
    },
    {
      "type": "Feature",
      "geometry": {
        "type": "Point",
        "coordinates": [
          73.71,
          20.947
        ]
      },
      "properties": {
        "id": "dang-mahal-eco-campsite",
        "name": "Mahal Eco Campsite",
        "category": "eco-campsite",
        "cluster": "dang-interior",
        "district": "dang",
        "status": "active",
        "tags": [
          "nature",
          "offbeat",
          "birding",
          "family"
        ],
        "precision": "area",
        "summary": "Forest-department cottages on the Purna river deep inside Purna sanctuary — the base for dawn walks, river mornings and real forest nights.",
        "monsoon_dependent": false,
        "confidence": "medium"
      }
    },
    {
      "type": "Feature",
      "geometry": {
        "type": "Point",
        "coordinates": [
          73.758,
          20.571
        ]
      },
      "properties": {
        "id": "dang-nageshwar-mahadev-temple",
        "name": "Nageshwar Mahadev Temple",
        "category": "temple",
        "cluster": "saputara",
        "district": "dang",
        "status": "active",
        "tags": [
          "pilgrimage",
          "family",
          "evening",
          "mythology"
        ],
        "precision": "area",
        "summary": "Lakeside Shiva temple woven into Saputara's serpent-worship roots — small, active, and busiest during Shravan and festival evenings.",
        "monsoon_dependent": false,
        "confidence": "medium"
      }
    },
    {
      "type": "Feature",
      "geometry": {
        "type": "Point",
        "coordinates": [
          73.4,
          21.03
        ]
      },
      "properties": {
        "id": "dang-padam-dungari",
        "name": "Padam Dungari Eco Campsite",
        "category": "eco-campsite",
        "cluster": "waghai",
        "district": "dang",
        "status": "active",
        "tags": [
          "nature",
          "offbeat",
          "family",
          "birding"
        ],
        "precision": "area",
        "summary": "Forest-department campsite on the Ambika river in the hills near Vyara — riverside cottages and trails that pair with the Waghai belt.",
        "monsoon_dependent": false,
        "confidence": "medium"
      }
    },
    {
      "type": "Feature",
      "geometry": {
        "type": "Point",
        "coordinates": [
          73.755,
          20.855
        ]
      },
      "properties": {
        "id": "dang-pampa-sarovar",
        "name": "Pampa Sarovar",
        "category": "religious-site",
        "cluster": "dang-interior",
        "district": "dang",
        "status": "active",
        "tags": [
          "pilgrimage",
          "mythology",
          "nature",
          "offbeat"
        ],
        "precision": "area",
        "summary": "A quiet sacred pond near Subir tied to the Shabari story — forest-edged water, small shrines and almost no crowd.",
        "monsoon_dependent": false,
        "confidence": "medium"
      }
    },
    {
      "type": "Feature",
      "geometry": {
        "type": "Point",
        "coordinates": [
          73.7,
          20.93
        ]
      },
      "properties": {
        "id": "dang-purna-wildlife-sanctuary",
        "name": "Purna Wildlife Sanctuary",
        "category": "wildlife",
        "cluster": "dang-interior",
        "district": "dang",
        "status": "active",
        "tags": [
          "wildlife",
          "nature",
          "birding",
          "offbeat",
          "photography"
        ],
        "precision": "area",
        "summary": "Dense teak-and-bamboo forest on the Purna river — one of Gujarat's rainiest tracts, with forest drives, trails and the Mahal campsite at its heart.",
        "monsoon_dependent": false,
        "confidence": "medium"
      }
    },
    {
      "type": "Feature",
      "geometry": {
        "type": "Point",
        "coordinates": [
          73.753,
          20.5725
        ]
      },
      "properties": {
        "id": "dang-pushpak-ropeway",
        "name": "Pushpak Ropeway",
        "category": "adventure",
        "cluster": "saputara",
        "district": "dang",
        "status": "active",
        "tags": [
          "popular",
          "family",
          "adventure",
          "photography"
        ],
        "precision": "approximate",
        "summary": "Saputara's cable car glides from the lake side across the valley to the Sunset Point ridge — ten scenic minutes each way.",
        "monsoon_dependent": false,
        "confidence": "high"
      }
    },
    {
      "type": "Feature",
      "geometry": {
        "type": "Point",
        "coordinates": [
          73.754,
          20.573
        ]
      },
      "properties": {
        "id": "dang-rose-garden",
        "name": "Rose Garden",
        "category": "garden",
        "cluster": "saputara",
        "district": "dang",
        "status": "active",
        "tags": [
          "family",
          "nature",
          "photography",
          "picnic",
          "winter"
        ],
        "precision": "area",
        "summary": "Saputara's rose beds near the lakefront — modest in size, at their fragrant best on cool winter mornings.",
        "monsoon_dependent": false,
        "confidence": "medium"
      }
    },
    {
      "type": "Feature",
      "geometry": {
        "type": "Point",
        "coordinates": [
          73.61,
          20.66
        ]
      },
      "properties": {
        "id": "dang-rupgadh-fort",
        "name": "Rupgadh Fort",
        "category": "fort",
        "cluster": "dang-interior",
        "district": "dang",
        "status": "active",
        "tags": [
          "trekking",
          "history",
          "offbeat",
          "nature"
        ],
        "precision": "area",
        "summary": "Hilltop fort remains linked to Dang's Bhil kings — a forest trek to ramparts few tourists have ever heard of.",
        "monsoon_dependent": false,
        "confidence": "low"
      }
    },
    {
      "type": "Feature",
      "geometry": {
        "type": "Point",
        "coordinates": [
          73.749,
          20.577
        ]
      },
      "properties": {
        "id": "dang-saputara-adventure-park",
        "name": "Saputara Adventure Park",
        "category": "adventure",
        "cluster": "saputara",
        "district": "dang",
        "status": "seasonal",
        "tags": [
          "adventure",
          "kids",
          "family"
        ],
        "precision": "area",
        "summary": "Operator-run adventure activities on Governor's Hill — ziplines, rope courses, ATVs; seasonal and variable, so confirm before promising the kids.",
        "monsoon_dependent": false,
        "confidence": "low"
      }
    },
    {
      "type": "Feature",
      "geometry": {
        "type": "Point",
        "coordinates": [
          73.755,
          20.5712
        ]
      },
      "properties": {
        "id": "dang-saputara-lake",
        "name": "Saputara Lake",
        "category": "lake",
        "cluster": "saputara",
        "district": "dang",
        "status": "active",
        "tags": [
          "popular",
          "family",
          "boating",
          "picnic",
          "evening",
          "summer-escape"
        ],
        "precision": "approximate",
        "summary": "Saputara's centrepiece — a calm hilltop lake with pedal and row boating, garden-lined banks, and the town's liveliest evening scene.",
        "monsoon_dependent": false,
        "confidence": "high"
      }
    },
    {
      "type": "Feature",
      "geometry": {
        "type": "Point",
        "coordinates": [
          73.7595,
          20.5755
        ]
      },
      "properties": {
        "id": "dang-saputara-tribal-museum",
        "name": "Saputara Tribal Museum",
        "category": "museum",
        "cluster": "saputara",
        "district": "dang",
        "status": "active",
        "tags": [
          "tribal-culture",
          "heritage",
          "history",
          "family"
        ],
        "precision": "approximate",
        "summary": "Compact museum of Dangi life — masks, instruments, house models and household tools that decode the villages you drive past in Dang.",
        "monsoon_dependent": false,
        "confidence": "high"
      }
    },
    {
      "type": "Feature",
      "geometry": {
        "type": "Point",
        "coordinates": [
          73.762,
          20.842
        ]
      },
      "properties": {
        "id": "dang-shabari-dham",
        "name": "Shabari Dham",
        "category": "temple",
        "cluster": "dang-interior",
        "district": "dang",
        "status": "active",
        "tags": [
          "pilgrimage",
          "mythology",
          "family",
          "nature"
        ],
        "precision": "approximate",
        "summary": "Hilltop temple near Subir marking the spot where, by local tradition, Shabari offered wild berries to Ram — a key Ramayana site in Dang.",
        "monsoon_dependent": false,
        "confidence": "medium"
      }
    },
    {
      "type": "Feature",
      "geometry": {
        "type": "Point",
        "coordinates": [
          73.66,
          20.72
        ]
      },
      "properties": {
        "id": "dang-shivghat",
        "name": "Shivghat",
        "category": "religious-site",
        "cluster": "dang-interior",
        "district": "dang",
        "status": "active",
        "tags": [
          "offbeat",
          "pilgrimage",
          "nature",
          "monsoon"
        ],
        "precision": "area",
        "summary": "A riverside Shiva shrine and bathing ghat on the Ahwa–Saputara road — a shady halt where road, river and a small temple meet.",
        "monsoon_dependent": true,
        "confidence": "low"
      }
    },
    {
      "type": "Feature",
      "geometry": {
        "type": "Point",
        "coordinates": [
          73.757,
          20.576
        ]
      },
      "properties": {
        "id": "dang-step-garden",
        "name": "Step Garden",
        "category": "garden",
        "cluster": "saputara",
        "district": "dang",
        "status": "active",
        "tags": [
          "family",
          "kids",
          "picnic",
          "nature"
        ],
        "precision": "area",
        "summary": "Terraced hillside garden in Saputara town — planted steps, shaded corners and short winding paths that suit an easy family hour.",
        "monsoon_dependent": false,
        "confidence": "medium"
      }
    },
    {
      "type": "Feature",
      "geometry": {
        "type": "Point",
        "coordinates": [
          73.772,
          20.583
        ]
      },
      "properties": {
        "id": "dang-sunrise-point",
        "name": "Sunrise Point (Valley View Point)",
        "category": "viewpoint",
        "cluster": "saputara",
        "district": "dang",
        "status": "active",
        "tags": [
          "sunrise",
          "photography",
          "nature",
          "family"
        ],
        "precision": "approximate",
        "summary": "East-facing viewpoint a short drive from Saputara town where the valley fills with dawn mist — the quiet counterpart to Sunset Point.",
        "monsoon_dependent": false,
        "confidence": "medium"
      }
    },
    {
      "type": "Feature",
      "geometry": {
        "type": "Point",
        "coordinates": [
          73.741,
          20.568
        ]
      },
      "properties": {
        "id": "dang-sunset-point",
        "name": "Sunset Point (Gandhi Shikhar)",
        "category": "viewpoint",
        "cluster": "saputara",
        "district": "dang",
        "status": "active",
        "tags": [
          "sunset",
          "popular",
          "photography",
          "family",
          "nature"
        ],
        "precision": "approximate",
        "summary": "Saputara's classic evening ritual — a west-facing ridge reached by ropeway or a stepped climb, with layered Sahyadri views at dusk.",
        "monsoon_dependent": false,
        "confidence": "medium"
      }
    },
    {
      "type": "Feature",
      "geometry": {
        "type": "Point",
        "coordinates": [
          73.766,
          20.58
        ]
      },
      "properties": {
        "id": "dang-table-point",
        "name": "Table Point",
        "category": "viewpoint",
        "cluster": "saputara",
        "district": "dang",
        "status": "active",
        "tags": [
          "popular",
          "family",
          "picnic",
          "photography",
          "nature"
        ],
        "precision": "approximate",
        "summary": "A flat hilltop meadow on Saputara's rim with wide valley views, pony rides and snack stalls — the easiest family stop in town.",
        "monsoon_dependent": false,
        "confidence": "medium"
      }
    },
    {
      "type": "Feature",
      "geometry": {
        "type": "Point",
        "coordinates": [
          73.763,
          20.582
        ]
      },
      "properties": {
        "id": "dang-town-view-point",
        "name": "Town View Point",
        "category": "viewpoint",
        "cluster": "saputara",
        "district": "dang",
        "status": "active",
        "tags": [
          "photography",
          "nature",
          "offbeat"
        ],
        "precision": "area",
        "summary": "A roadside rise overlooking Saputara's rooftops, lake and plateau bowl — the postcard-of-the-town shot in one stop.",
        "monsoon_dependent": false,
        "confidence": "low"
      }
    },
    {
      "type": "Feature",
      "geometry": {
        "type": "Point",
        "coordinates": [
          73.455,
          20.77
        ]
      },
      "properties": {
        "id": "dang-vansda-national-park",
        "name": "Vansda National Park",
        "category": "wildlife",
        "cluster": "waghai",
        "district": "dang",
        "status": "active",
        "tags": [
          "wildlife",
          "nature",
          "birding",
          "offbeat"
        ],
        "precision": "area",
        "summary": "A compact national park of dense old forest bordering Waghai — giant squirrels, pythons, leopards and butterflies in barely 24 km².",
        "monsoon_dependent": false,
        "confidence": "medium"
      }
    },
    {
      "type": "Feature",
      "geometry": {
        "type": "Point",
        "coordinates": [
          73.505,
          20.786
        ]
      },
      "properties": {
        "id": "dang-waghai-botanical-garden",
        "name": "Waghai Botanical Garden",
        "category": "garden",
        "cluster": "waghai",
        "district": "dang",
        "status": "active",
        "tags": [
          "nature",
          "family",
          "birding",
          "picnic",
          "photography"
        ],
        "precision": "approximate",
        "summary": "A large forest-department botanical campus at Waghai — labelled native trees, bamboo groves and shaded walks at the foot of the Dang hills.",
        "monsoon_dependent": false,
        "confidence": "medium"
      }
    },
    {
      "type": "Feature",
      "geometry": {
        "type": "Point",
        "coordinates": [
          73.7,
          21.843
        ]
      },
      "properties": {
        "id": "narmada-arogya-van",
        "name": "Arogya Van",
        "category": "garden",
        "cluster": "sou-complex",
        "district": "narmada",
        "status": "active",
        "tags": [
          "nature",
          "family",
          "photography"
        ],
        "precision": "area",
        "summary": "A wellness-themed garden of medicinal plants near the Statue of Unity — Ayurvedic plots, yoga spaces and calm landscaped walks.",
        "monsoon_dependent": false,
        "confidence": "medium"
      }
    },
    {
      "type": "Feature",
      "geometry": {
        "type": "Point",
        "coordinates": [
          73.705,
          21.835
        ]
      },
      "properties": {
        "id": "narmada-butterfly-garden",
        "name": "Butterfly Garden",
        "category": "garden",
        "cluster": "sou-complex",
        "district": "narmada",
        "status": "active",
        "tags": [
          "nature",
          "kids",
          "family",
          "photography"
        ],
        "precision": "area",
        "summary": "Host-plant gardens alive with free-flying butterflies near the Statue of Unity — best in the first sunny hours of the morning.",
        "monsoon_dependent": false,
        "confidence": "medium"
      }
    },
    {
      "type": "Feature",
      "geometry": {
        "type": "Point",
        "coordinates": [
          73.706,
          21.846
        ]
      },
      "properties": {
        "id": "narmada-cactus-garden",
        "name": "Cactus Garden",
        "category": "garden",
        "cluster": "sou-complex",
        "district": "narmada",
        "status": "active",
        "tags": [
          "nature",
          "photography",
          "family",
          "kids"
        ],
        "precision": "area",
        "summary": "A dome-and-dunes showcase of hundreds of cactus and succulent species near the Statue of Unity — oddly photogenic and genuinely educational.",
        "monsoon_dependent": false,
        "confidence": "medium"
      }
    },
    {
      "type": "Feature",
      "geometry": {
        "type": "Point",
        "coordinates": [
          73.708,
          21.847
        ]
      },
      "properties": {
        "id": "narmada-children-nutrition-park",
        "name": "Children Nutrition Park",
        "category": "park",
        "cluster": "sou-complex",
        "district": "narmada",
        "status": "active",
        "tags": [
          "kids",
          "family",
          "popular",
          "ticketed"
        ],
        "precision": "area",
        "summary": "A toy-train-led edutainment park teaching kids about food and nutrition through themed stations — squarely aimed at the under-12s.",
        "monsoon_dependent": false,
        "confidence": "medium"
      }
    },
    {
      "type": "Feature",
      "geometry": {
        "type": "Point",
        "coordinates": [
          73.722,
          21.448
        ]
      },
      "properties": {
        "id": "narmada-devmogra-temple",
        "name": "Devmogra Mata Temple",
        "category": "temple",
        "cluster": "dediapada-belt",
        "district": "narmada",
        "status": "active",
        "tags": [
          "pilgrimage",
          "tribal-culture",
          "offbeat",
          "heritage"
        ],
        "precision": "approximate",
        "summary": "Principal shrine of Yaha Mogi, the great mother goddess of the region's tribal communities — its annual fair draws lakhs to Sagbara.",
        "monsoon_dependent": false,
        "confidence": "medium"
      }
    },
    {
      "type": "Feature",
      "geometry": {
        "type": "Point",
        "coordinates": [
          73.703,
          21.836
        ]
      },
      "properties": {
        "id": "narmada-dino-trail",
        "name": "Dino Trail",
        "category": "park",
        "cluster": "sou-complex",
        "district": "narmada",
        "status": "active",
        "tags": [
          "kids",
          "family",
          "offbeat",
          "photography"
        ],
        "precision": "area",
        "summary": "A short walk among life-size dinosaur models headlined by a towering Rajasaurus — a kids' delight with a real Narmada-valley fossil hook.",
        "monsoon_dependent": false,
        "confidence": "low"
      }
    },
    {
      "type": "Feature",
      "geometry": {
        "type": "Point",
        "coordinates": [
          73.705,
          21.845
        ]
      },
      "properties": {
        "id": "narmada-ekta-cruise",
        "name": "Ekta Cruise (Narmada Boat Ride)",
        "category": "adventure",
        "cluster": "sou-complex",
        "district": "narmada",
        "status": "active",
        "tags": [
          "family",
          "popular",
          "photography",
          "boating",
          "evening"
        ],
        "precision": "area",
        "summary": "A calm Narmada boat ride with the Statue of Unity growing off the bow — the water-level angle no viewpoint on land can give.",
        "monsoon_dependent": false,
        "confidence": "medium"
      }
    },
    {
      "type": "Feature",
      "geometry": {
        "type": "Point",
        "coordinates": [
          73.71,
          21.849
        ]
      },
      "properties": {
        "id": "narmada-ekta-mall",
        "name": "Ekta Mall",
        "category": "market",
        "cluster": "sou-complex",
        "district": "narmada",
        "status": "active",
        "tags": [
          "shopping",
          "family",
          "heritage"
        ],
        "precision": "area",
        "summary": "State-emporium shopping under one roof — handicrafts and handlooms from across India, the campus's answer to souvenir hunting.",
        "monsoon_dependent": false,
        "confidence": "low"
      }
    },
    {
      "type": "Feature",
      "geometry": {
        "type": "Point",
        "coordinates": [
          73.703,
          21.847
        ]
      },
      "properties": {
        "id": "narmada-ekta-nursery",
        "name": "Ekta Nursery",
        "category": "garden",
        "cluster": "sou-complex",
        "district": "narmada",
        "status": "active",
        "tags": [
          "nature",
          "shopping",
          "family"
        ],
        "precision": "area",
        "summary": "A large production nursery with a visitor face — greenhouses, bonsai and cactus sections, and plants you can actually buy and carry home.",
        "monsoon_dependent": false,
        "confidence": "low"
      }
    },
    {
      "type": "Feature",
      "geometry": {
        "type": "Point",
        "coordinates": [
          73.652,
          21.752
        ]
      },
      "properties": {
        "id": "narmada-garudeshwar",
        "name": "Garudeshwar Datta Temple",
        "category": "temple",
        "cluster": "ekta-nagar-area",
        "district": "narmada",
        "status": "active",
        "tags": [
          "pilgrimage",
          "family",
          "nature",
          "offbeat"
        ],
        "precision": "approximate",
        "summary": "Riverside samadhi shrine of Vasudevanand Saraswati — a major Dattatreya pilgrimage on the Narmada, minutes from Ekta Nagar.",
        "monsoon_dependent": false,
        "confidence": "medium"
      }
    },
    {
      "type": "Feature",
      "geometry": {
        "type": "Point",
        "coordinates": [
          73.505,
          21.867
        ]
      },
      "properties": {
        "id": "narmada-harsiddhi-mata-temple",
        "name": "Harsiddhi Mata Temple, Rajpipla",
        "category": "temple",
        "cluster": "rajpipla",
        "district": "narmada",
        "status": "active",
        "tags": [
          "pilgrimage",
          "heritage",
          "family"
        ],
        "precision": "area",
        "summary": "Rajpipla's town goddess — the royal family's Harsiddhi Mata shrine, busiest and brightest through Navratri.",
        "monsoon_dependent": false,
        "confidence": "medium"
      }
    },
    {
      "type": "Feature",
      "geometry": {
        "type": "Point",
        "coordinates": [
          73.55,
          21.78
        ]
      },
      "properties": {
        "id": "narmada-junaraj",
        "name": "Junaraj (Old Rajpipla)",
        "category": "fort",
        "cluster": "rajpipla",
        "district": "narmada",
        "status": "active",
        "tags": [
          "history",
          "offbeat",
          "trekking",
          "nature"
        ],
        "precision": "area",
        "summary": "The hill site of Rajpipla's original capital — scattered ruins in forested country south of the modern town, for history-minded explorers.",
        "monsoon_dependent": false,
        "confidence": "low"
      }
    },
    {
      "type": "Feature",
      "geometry": {
        "type": "Point",
        "coordinates": [
          73.702,
          21.828
        ]
      },
      "properties": {
        "id": "narmada-jungle-safari",
        "name": "Jungle Safari (Sardar Patel Zoological Park)",
        "category": "wildlife",
        "cluster": "sou-complex",
        "district": "narmada",
        "status": "active",
        "tags": [
          "family",
          "kids",
          "wildlife",
          "popular",
          "ticketed"
        ],
        "precision": "approximate",
        "summary": "A large hillside zoological park near the Statue of Unity — native and exotic animals across terraced levels, plus walk-in aviaries kids love.",
        "monsoon_dependent": false,
        "confidence": "high"
      }
    },
    {
      "type": "Feature",
      "geometry": {
        "type": "Point",
        "coordinates": [
          73.085,
          21.865
        ]
      },
      "properties": {
        "id": "narmada-kabirvad",
        "name": "Kabirvad Banyan Island",
        "category": "religious-site",
        "cluster": "poicha",
        "district": "narmada",
        "status": "active",
        "tags": [
          "nature",
          "pilgrimage",
          "mythology",
          "offbeat",
          "boating"
        ],
        "precision": "approximate",
        "summary": "An island in the Narmada covered by a single colossal banyan linked to sant Kabir — reached by a short boat crossing, unlike anywhere else in Gujarat.",
        "monsoon_dependent": false,
        "confidence": "high"
      }
    },
    {
      "type": "Feature",
      "geometry": {
        "type": "Point",
        "coordinates": [
          73.578,
          21.8
        ]
      },
      "properties": {
        "id": "narmada-karjan-reservoir",
        "name": "Karjan Dam & Reservoir",
        "category": "dam",
        "cluster": "rajpipla",
        "district": "narmada",
        "status": "active",
        "tags": [
          "nature",
          "offbeat",
          "picnic",
          "photography"
        ],
        "precision": "area",
        "summary": "A quiet reservoir in the hills south-east of Rajpipla — sunset water views and picnic spots, with public access rules worth checking first.",
        "monsoon_dependent": false,
        "confidence": "low"
      }
    },
    {
      "type": "Feature",
      "geometry": {
        "type": "Point",
        "coordinates": [
          73.71,
          21.844
        ]
      },
      "properties": {
        "id": "narmada-maze-garden",
        "name": "Maze Garden (Bhool Bhulaiya)",
        "category": "garden",
        "cluster": "sou-complex",
        "district": "narmada",
        "status": "active",
        "tags": [
          "family",
          "kids",
          "photography",
          "popular"
        ],
        "precision": "area",
        "summary": "A large hedge maze laid out in a yantra pattern near the Statue of Unity — half puzzle, half photo op, best fun with kids in tow.",
        "monsoon_dependent": false,
        "confidence": "medium"
      }
    },
    {
      "type": "Feature",
      "geometry": {
        "type": "Point",
        "coordinates": [
          73.708,
          21.841
        ]
      },
      "properties": {
        "id": "narmada-miyawaki-forest",
        "name": "Miyawaki Forest",
        "category": "garden",
        "cluster": "sou-complex",
        "district": "narmada",
        "status": "active",
        "tags": [
          "nature",
          "offbeat",
          "photography"
        ],
        "precision": "area",
        "summary": "A demonstration of the Japanese dense-planting method — a fast-grown native mini-forest with walkways, more idea than attraction.",
        "monsoon_dependent": false,
        "confidence": "medium"
      }
    },
    {
      "type": "Feature",
      "geometry": {
        "type": "Point",
        "coordinates": [
          73.534,
          21.976
        ]
      },
      "properties": {
        "id": "narmada-nilkanthdham-poicha",
        "name": "Nilkanthdham Swaminarayan Temple, Poicha",
        "category": "temple",
        "cluster": "poicha",
        "district": "narmada",
        "status": "active",
        "tags": [
          "pilgrimage",
          "popular",
          "family",
          "architecture",
          "evening"
        ],
        "precision": "approximate",
        "summary": "A vast Swaminarayan temple-and-exhibition complex on the Narmada bank at Poicha — ornate shrines, ghats, themed displays and evening lighting.",
        "monsoon_dependent": false,
        "confidence": "high"
      }
    },
    {
      "type": "Feature",
      "geometry": {
        "type": "Point",
        "coordinates": [
          73.8219,
          21.6669
        ]
      },
      "properties": {
        "id": "narmada-ninai-falls",
        "name": "Ninai Falls",
        "category": "waterfall",
        "cluster": "dediapada-belt",
        "district": "narmada",
        "status": "active",
        "tags": [
          "monsoon",
          "offbeat",
          "nature",
          "photography",
          "picnic"
        ],
        "precision": "exact",
        "summary": "A compact, forceful monsoon waterfall in forested country ~35 km from Dediapada — eastern Narmada's favourite rainy-season outing.",
        "monsoon_dependent": true,
        "confidence": "high"
      }
    },
    {
      "type": "Feature",
      "geometry": {
        "type": "Point",
        "coordinates": [
          73.502,
          21.866
        ]
      },
      "properties": {
        "id": "narmada-rajpipla-heritage-walk",
        "name": "Rajpipla Old Town & Clock Tower",
        "category": "cultural",
        "cluster": "rajpipla",
        "district": "narmada",
        "status": "active",
        "tags": [
          "heritage",
          "history",
          "architecture",
          "photography",
          "offbeat"
        ],
        "precision": "area",
        "summary": "A self-guided wander through Rajpipla's princely leftovers — clock tower, gates, palace facades and bazaar streets that remember a capital.",
        "monsoon_dependent": false,
        "confidence": "medium"
      }
    },
    {
      "type": "Feature",
      "geometry": {
        "type": "Point",
        "coordinates": [
          73.5,
          21.87
        ]
      },
      "properties": {
        "id": "narmada-rajvant-palace",
        "name": "Rajvant Palace (Vijay Palace)",
        "category": "palace",
        "cluster": "rajpipla",
        "district": "narmada",
        "status": "active",
        "tags": [
          "heritage",
          "history",
          "architecture",
          "photography",
          "family"
        ],
        "precision": "approximate",
        "summary": "Rajpipla's European-style royal palace — colonnaded halls, royal memorabilia and film-shoot lawns, now run as a heritage resort with a museum wing.",
        "monsoon_dependent": false,
        "confidence": "medium"
      }
    },
    {
      "type": "Feature",
      "geometry": {
        "type": "Point",
        "coordinates": [
          73.67,
          21.86
        ]
      },
      "properties": {
        "id": "narmada-river-rafting-khalwani",
        "name": "River Rafting, Khalwani",
        "category": "adventure",
        "cluster": "ekta-nagar-area",
        "district": "narmada",
        "status": "active",
        "tags": [
          "adventure",
          "popular",
          "nature",
          "photography"
        ],
        "precision": "area",
        "summary": "White-water rafting on a dam-fed stretch of the Narmada near Ekta Nagar — a guided run through forested gorge with beginner-friendly rapids.",
        "monsoon_dependent": false,
        "confidence": "medium"
      }
    },
    {
      "type": "Feature",
      "geometry": {
        "type": "Point",
        "coordinates": [
          73.51,
          21.585
        ]
      },
      "properties": {
        "id": "narmada-sagai-malsamot",
        "name": "Sagai–Malsamot Eco Campsite & Hill",
        "category": "eco-campsite",
        "cluster": "dediapada-belt",
        "district": "narmada",
        "status": "active",
        "tags": [
          "offbeat",
          "nature",
          "family",
          "birding",
          "trekking"
        ],
        "precision": "area",
        "summary": "Forest campsite and hilltop plateau in the Dediapada belt — eastern Narmada's 'mini hill station' with cottages, trails and monsoon views.",
        "monsoon_dependent": false,
        "confidence": "medium"
      }
    },
    {
      "type": "Feature",
      "geometry": {
        "type": "Point",
        "coordinates": [
          73.7476,
          21.8306
        ]
      },
      "properties": {
        "id": "narmada-sardar-sarovar-dam",
        "name": "Sardar Sarovar Dam Viewpoints",
        "category": "dam",
        "cluster": "sou-complex",
        "district": "narmada",
        "status": "active",
        "tags": [
          "popular",
          "photography",
          "family",
          "nature"
        ],
        "precision": "approximate",
        "summary": "Designated viewpoints over one of the world's largest concrete gravity dams — at full monsoon release, the most dramatic sight at Ekta Nagar.",
        "monsoon_dependent": true,
        "confidence": "high"
      }
    },
    {
      "type": "Feature",
      "geometry": {
        "type": "Point",
        "coordinates": [
          73.633,
          21.79
        ]
      },
      "properties": {
        "id": "narmada-shoolpaneshwar-temple",
        "name": "Shoolpaneshwar Mahadev Temple (Gora)",
        "category": "temple",
        "cluster": "ekta-nagar-area",
        "district": "narmada",
        "status": "active",
        "tags": [
          "pilgrimage",
          "mythology",
          "nature",
          "offbeat"
        ],
        "precision": "approximate",
        "summary": "The re-established Shiva shrine of a temple submerged by the Sardar Sarovar reservoir — riverside darshan at Gora with deep Narmada lore.",
        "monsoon_dependent": false,
        "confidence": "medium"
      }
    },
    {
      "type": "Feature",
      "geometry": {
        "type": "Point",
        "coordinates": [
          73.55,
          21.65
        ]
      },
      "properties": {
        "id": "narmada-shoolpaneshwar-wls",
        "name": "Shoolpaneshwar Wildlife Sanctuary",
        "category": "wildlife",
        "cluster": "dediapada-belt",
        "district": "narmada",
        "status": "active",
        "tags": [
          "wildlife",
          "nature",
          "birding",
          "offbeat",
          "trekking"
        ],
        "precision": "area",
        "summary": "Six hundred square kilometres of hill forest along the Narmada's south bank — sloth bear country with waterfalls, treks and eco-campsites.",
        "monsoon_dependent": false,
        "confidence": "medium"
      }
    },
    {
      "type": "Feature",
      "geometry": {
        "type": "Point",
        "coordinates": [
          73.717,
          21.838
        ]
      },
      "properties": {
        "id": "narmada-sou-laser-show",
        "name": "SoU Laser Light & Sound Show",
        "category": "show",
        "cluster": "sou-complex",
        "district": "narmada",
        "status": "active",
        "tags": [
          "evening",
          "popular",
          "family",
          "photography"
        ],
        "precision": "area",
        "summary": "Nightly laser projection and sound show that turns the Statue of Unity into a canvas for Sardar Patel's story — the campus's evening set piece.",
        "monsoon_dependent": false,
        "confidence": "medium"
      }
    },
    {
      "type": "Feature",
      "geometry": {
        "type": "Point",
        "coordinates": [
          73.7191,
          21.838
        ]
      },
      "properties": {
        "id": "narmada-statue-of-unity",
        "name": "Statue of Unity",
        "category": "monument",
        "cluster": "sou-complex",
        "district": "narmada",
        "status": "active",
        "tags": [
          "popular",
          "family",
          "architecture",
          "history",
          "ticketed",
          "photography"
        ],
        "precision": "exact",
        "summary": "The world's tallest statue — Sardar Patel at 182 m above the Narmada, with a 153 m viewing gallery, museum, and a full day of campus attractions.",
        "monsoon_dependent": false,
        "confidence": "high"
      }
    },
    {
      "type": "Feature",
      "geometry": {
        "type": "Point",
        "coordinates": [
          73.705,
          21.849
        ]
      },
      "properties": {
        "id": "narmada-unity-glow-garden",
        "name": "Unity Glow Garden",
        "category": "park",
        "cluster": "sou-complex",
        "district": "narmada",
        "status": "active",
        "tags": [
          "evening",
          "family",
          "kids",
          "popular",
          "ticketed"
        ],
        "precision": "area",
        "summary": "An after-dark park of illuminated sculptures, light tunnels and glowing installations — the SoU campus's designated evening hour.",
        "monsoon_dependent": false,
        "confidence": "medium"
      }
    },
    {
      "type": "Feature",
      "geometry": {
        "type": "Point",
        "coordinates": [
          73.715,
          21.842
        ]
      },
      "properties": {
        "id": "narmada-valley-of-flowers",
        "name": "Valley of Flowers (Bharat Van)",
        "category": "garden",
        "cluster": "sou-complex",
        "district": "narmada",
        "status": "active",
        "tags": [
          "family",
          "photography",
          "nature",
          "popular",
          "couples"
        ],
        "precision": "area",
        "summary": "Riverside flower gardens along the Narmada below the Statue of Unity — curated beds, lawns and photo spots best in the cool months.",
        "monsoon_dependent": false,
        "confidence": "high"
      }
    },
    {
      "type": "Feature",
      "geometry": {
        "type": "Point",
        "coordinates": [
          73.712,
          21.84
        ]
      },
      "properties": {
        "id": "narmada-vishwa-van",
        "name": "Vishwa Van",
        "category": "garden",
        "cluster": "sou-complex",
        "district": "narmada",
        "status": "active",
        "tags": [
          "nature",
          "offbeat",
          "photography"
        ],
        "precision": "area",
        "summary": "A 'world forest' planting trees and herbs from the continents around symbolic global themes — one of the campus's quieter green tickets.",
        "monsoon_dependent": false,
        "confidence": "low"
      }
    },
    {
      "type": "Feature",
      "geometry": {
        "type": "Point",
        "coordinates": [
          73.66,
          21.772
        ]
      },
      "properties": {
        "id": "narmada-zarwani-falls",
        "name": "Zarwani Waterfall",
        "category": "waterfall",
        "cluster": "ekta-nagar-area",
        "district": "narmada",
        "status": "active",
        "tags": [
          "monsoon",
          "nature",
          "photography",
          "adventure",
          "picnic"
        ],
        "precision": "approximate",
        "summary": "A forest waterfall inside Shoolpaneshwar sanctuary, 30 minutes from Ekta Nagar — rocky gorge, shallow pools and a proper jungle feel.",
        "monsoon_dependent": true,
        "confidence": "high"
      }
    }
  ]
}
